{
  "type": "FeatureCollection",
  "features": [
    {
      "type": "Feature",
      "properties": {
        "norad_id": 35156,
        "name": "FENGYUN 1C DEB",
        "group": "fengyun-1c-debris",
        "lat": 81.15578233543977,
        "lon": -123.9666471919712,
        "alt_km": 834.1471892198133,
        "timestamp": "2025-12-13T16:48:32.997628+00:00",
        "meta_object_name": "FENGYUN 1C DEB",
        "meta_object_id": "1999-025DML",
        "meta_epoch": "2025-12-12T16:32:42.860544",
        "meta_mean_motion": 14.10626157,
        "meta_eccentricity": 0.00370025,
        "meta_inclination": 98.7527,
        "meta_ra_of_asc_node": 333.1123,
        "meta_arg_of_pericenter": 148.5895,
        "meta_mean_anomaly": 211.7497,
        "meta_ephemeris_type": 0,
        "meta_classification_type": "U",
        "meta_norad_cat_id": 35156,
        "meta_element_set_no": 999,
        "meta_rev_at_epoch": 64043,
        "meta_bstar": 0.00049181464,
        "meta_mean_motion_dot": 8.41e-06,
        "meta_mean_motion_ddot": 0,
        "tle_line1": "1 35156U 99025DML 25346.68938496  .00000841  00000+0  49181-3 0  9996",
        "tle_line2": "2 35156  98.7527 333.1123 0037002 148.5895 211.7497 14.10626157640439"
      },
      "geometry": {
        "type": "Point",
        "coordinates": [
          -123.9666471919712,
          81.15578233543977
        ]
      }
    },
    {
      "type": "Feature",
      "properties": {
        "norad_id": 35159,
        "name": "FENGYUN 1C DEB",
        "group": "fengyun-1c-debris",
        "lat": -72.15763671846423,
        "lon": -145.96544018369138,
        "alt_km": 747.9451683664074,
        "timestamp": "2025-12-13T16:48:32.997638+00:00",
        "meta_object_name": "FENGYUN 1C DEB",
        "meta_object_id": "1999-025DMP",
        "meta_epoch": "2025-12-09T03:46:25.809024",
        "meta_mean_motion": 14.45073586,
        "meta_eccentricity": 0.00124144,
        "meta_inclination": 98.838,
        "meta_ra_of_asc_node": 58.2154,
        "meta_arg_of_pericenter": 183.5323,
        "meta_mean_anomaly": 209.1059,
        "meta_ephemeris_type": 0,
        "meta_classification_type": "U",
        "meta_norad_cat_id": 35159,
        "meta_element_set_no": 999,
        "meta_rev_at_epoch": 61429,
        "meta_bstar": 0.002289677,
        "meta_mean_motion_dot": 7.97e-05,
        "meta_mean_motion_ddot": 0,
        "tle_line1": "1 35159U 99025DMP 25343.15724316  .00007970  00000+0  22897-2 0  9996",
        "tle_line2": "2 35159  98.8380  58.2154 0012414 183.5323 209.1059 14.45073586614294"
      },
      "geometry": {
        "type": "Point",
        "coordinates": [
          -145.96544018369138,
          -72.15763671846423
        ]
      }
    },
    {
      "type": "Feature",
      "properties": {
        "norad_id": 35160,
        "name": "FENGYUN 1C DEB",
        "group": "fengyun-1c-debris",
        "lat": -53.705827758937644,
        "lon": 114.87247176077065,
        "alt_km": 731.1715269662072,
        "timestamp": "2025-12-13T16:48:32.997648+00:00",
        "meta_object_name": "FENGYUN 1C DEB",
        "meta_object_id": "1999-025DMQ",
        "meta_epoch": "2025-12-10T13:48:36.927360",
        "meta_mean_motion": 14.35952842,
        "meta_eccentricity": 0.0175991,
        "meta_inclination": 99.1552,
        "meta_ra_of_asc_node": 98.8694,
        "meta_arg_of_pericenter": 245.7685,
        "meta_mean_anomaly": 112.5022,
        "meta_ephemeris_type": 0,
        "meta_classification_type": "U",
        "meta_norad_cat_id": 35160,
        "meta_element_set_no": 999,
        "meta_rev_at_epoch": 64900,
        "meta_bstar": 0.0007719,
        "meta_mean_motion_dot": 2.617e-05,
        "meta_mean_motion_ddot": 0,
        "tle_line1": "1 35160U 99025DMQ 25344.57542740  .00002617  00000+0  77190-3 0  9994",
        "tle_line2": "2 35160  99.1552  98.8694 0175991 245.7685 112.5022 14.35952842649006"
      },
      "geometry": {
        "type": "Point",
        "coordinates": [
          114.87247176077065,
          -53.705827758937644
        ]
      }
    },
    {
      "type": "Feature",
      "properties": {
        "norad_id": 35165,
        "name": "FENGYUN 1C DEB",
        "group": "fengyun-1c-debris",
        "lat": 64.07792863434169,
        "lon": 60.84230984665938,
        "alt_km": 757.3176734688504,
        "timestamp": "2025-12-13T16:48:32.997658+00:00",
        "meta_object_name": "FENGYUN 1C DEB",
        "meta_object_id": "1999-025DMV",
        "meta_epoch": "2025-11-30T05:14:00.190464",
        "meta_mean_motion": 14.33570134,
        "meta_eccentricity": 0.00218891,
        "meta_inclination": 98.8778,
        "meta_ra_of_asc_node": 65.7738,
        "meta_arg_of_pericenter": 100.7376,
        "meta_mean_anomaly": 259.6273,
        "meta_ephemeris_type": 0,
        "meta_classification_type": "U",
        "meta_norad_cat_id": 35165,
        "meta_element_set_no": 999,
        "meta_rev_at_epoch": 89541,
        "meta_bstar": 0.0024382815,
        "meta_mean_motion_dot": 6.727e-05,
        "meta_mean_motion_ddot": 0,
        "tle_line1": "1 35165U 99025DMV 25334.21805776  .00006727  00000+0  24383-2 0  9991",
        "tle_line2": "2 35165  98.8778  65.7738 0021889 100.7376 259.6273 14.33570134895419"
      },
      "geometry": {
        "type": "Point",
        "coordinates": [
          60.84230984665938,
          64.07792863434169
        ]
      }
    },
    {
      "type": "Feature",
      "properties": {
        "norad_id": 35167,
        "name": "FENGYUN 1C DEB",
        "group": "fengyun-1c-debris",
        "lat": -1.199319992972896,
        "lon": 160.6947165020989,
        "alt_km": 636.2682880832353,
        "timestamp": "2025-12-13T16:48:32.997669+00:00",
        "meta_object_name": "FENGYUN 1C DEB",
        "meta_object_id": "1999-025DMX",
        "meta_epoch": "2025-12-10T17:28:55.626240",
        "meta_mean_motion": 14.31147278,
        "meta_eccentricity": 0.02294136,
        "meta_inclination": 98.4466,
        "meta_ra_of_asc_node": 337.9809,
        "meta_arg_of_pericenter": 210.1422,
        "meta_mean_anomaly": 148.6396,
        "meta_ephemeris_type": 0,
        "meta_classification_type": "U",
        "meta_norad_cat_id": 35167,
        "meta_element_set_no": 999,
        "meta_rev_at_epoch": 69991,
        "meta_bstar": 0.00065844155,
        "meta_mean_motion_dot": 2.269e-05,
        "meta_mean_motion_ddot": 0,
        "tle_line1": "1 35167U 99025DMX 25344.72842160  .00002269  00000+0  65844-3 0  9993",
        "tle_line2": "2 35167  98.4466 337.9809 0229413 210.1422 148.6396 14.31147278699912"
      },
      "geometry": {
        "type": "Point",
        "coordinates": [
          160.6947165020989,
          -1.199319992972896
        ]
      }
    },
    {
      "type": "Feature",
      "properties": {
        "norad_id": 35168,
        "name": "FENGYUN 1C DEB",
        "group": "fengyun-1c-debris",
        "lat": 68.74210714945121,
        "lon": -142.45672362126905,
        "alt_km": 780.2065447231389,
        "timestamp": "2025-12-13T16:48:32.997678+00:00",
        "meta_object_name": "FENGYUN 1C DEB",
        "meta_object_id": "1999-025DMY",
        "meta_epoch": "2025-12-11T11:53:15.848448",
        "meta_mean_motion": 14.15522112,
        "meta_eccentricity": 0.01260569,
        "meta_inclination": 98.2752,
        "meta_ra_of_asc_node": 237.4634,
        "meta_arg_of_pericenter": 131.2558,
        "meta_mean_anomaly": 229.9558,
        "meta_ephemeris_type": 0,
        "meta_classification_type": "U",
        "meta_norad_cat_id": 35168,
        "meta_element_set_no": 999,
        "meta_rev_at_epoch": 57906,
        "meta_bstar": 0.00034767464,
        "meta_mean_motion_dot": 6.96e-06,
        "meta_mean_motion_ddot": 0,
        "tle_line1": "1 35168U 99025DMY 25345.49532232  .00000696  00000+0  34767-3 0  9997",
        "tle_line2": "2 35168  98.2752 237.4634 0126056 131.2558 229.9558 14.15522112579063"
      },
      "geometry": {
        "type": "Point",
        "coordinates": [
          -142.45672362126905,
          68.74210714945121
        ]
      }
    },
    {
      "type": "Feature",
      "properties": {
        "norad_id": 35169,
        "name": "FENGYUN 1C DEB",
        "group": "fengyun-1c-debris",
        "lat": -34.54880299352038,
        "lon": -122.28170021797627,
        "alt_km": 785.1060154541692,
        "timestamp": "2025-12-13T16:48:32.997688+00:00",
        "meta_object_name": "FENGYUN 1C DEB",
        "meta_object_id": "1999-025DMZ",
        "meta_epoch": "2025-12-05T11:24:48.463488",
        "meta_mean_motion": 14.58604827,
        "meta_eccentricity": 0.01525013,
        "meta_inclination": 99.1294,
        "meta_ra_of_asc_node": 222.329,
        "meta_arg_of_pericenter": 129.6073,
        "meta_mean_anomaly": 231.8702,
        "meta_ephemeris_type": 0,
        "meta_classification_type": "U",
        "meta_norad_cat_id": 35169,
        "meta_element_set_no": 999,
        "meta_rev_at_epoch": 65674,
        "meta_bstar": 0.00095565714,
        "meta_mean_motion_dot": 5.168e-05,
        "meta_mean_motion_ddot": 0,
        "tle_line1": "1 35169U 99025DMZ 25339.47556092  .00005168  00000+0  95566-3 0  9992",
        "tle_line2": "2 35169  99.1294 222.3290 0152501 129.6073 231.8702 14.58604827656748"
      },
      "geometry": {
        "type": "Point",
        "coordinates": [
          -122.28170021797627,
          -34.54880299352038
        ]
      }
    }
  ]
}